STARLINK-36466          
1 67358U 26003AA  26037.35324920  .00113938  00000+0  19150-2 0  9998
2 67358  42.9994  44.7066 0001807 246.2430 113.8241 15.50649243  4027
STARLINK-36499          
1 67359U 26003AB  26037.58335648 -.02073376  00000+0 -53503-1 0  9997
2 67359  42.9995  43.4292 0001135 282.1315 256.6495 15.42050772  5674
STARLINK-36469          
1 67360U 26003AC  26037.58335648 -.01994482  00000+0 -48479-1 0  9994
2 67360  43.0002  43.4000 0000873 280.4124 270.4581 15.43669291  5674
STARLINK-35306          
1 67361U 26003AD  26037.41663622  .00108524  00000+0  18295-2 0  9998
2 67361  42.9988  44.3213 0002224 255.7890 104.2723 15.50587140  4030
STARLINK-36428          
1 67362U 26003AE  26036.38564261  .00107953  00000+0  18166-2 0  9995
2 67362  42.9974  50.3443 0002233 269.5748  90.4856 15.50641479  3873
TWILIGHT A              
1 67363U 26004A   26037.58900683  .00006556  00000+0  73637-3 0  9994
2 67363  97.8003  38.2863 0008186 200.1339 159.9555 14.87052577  3867
TWILIGHT B              
1 67364U 26004B   26037.58726747  .00007283  00000+0  81456-3 0  9998
2 67364  97.8006  38.2890 0008135 195.5756 164.5211 14.87186043  3873
TWILIGHT C              
1 67365U 26004C   26037.58690090  .00007079  00000+0  79161-3 0  9993
2 67365  97.7982  38.2851 0007718 200.8419 159.2484 14.87206802  3874
TWILIGHT D              
1 67366U 26004D   26037.58671058  .00004189  00000+0  47171-3 0  9992
2 67366  97.8038  38.2956 0008317 189.6373 170.4685 14.87148584  3873
TWILIGHT E              
1 67367U 26004E   26037.58489575  .00006582  00000+0  73443-3 0  9994
2 67367  97.7969  38.2855 0007163 202.3097 157.7809 14.87325958  3876
TWILIGHT F              
1 67368U 26004F   26037.58427118  .00006082  00000+0  67869-3 0  9990
2 67368  97.8030  38.2979 0007665 190.7013 169.4042 14.87348527  3875
TWILIGHT G              
1 67369U 26004G   26037.58375213  .00003154  00000+0  35557-3 0  9995
2 67369  97.7962  38.2858 0006542 204.4292 155.6615 14.87285606  3871
