CCSDS_OMM_VERS = 2.0
CREATION_DATE  = 
ORIGINATOR     = 

OBJECT_NAME    = STARLINK-36466
OBJECT_ID      = 2026-003AA
CENTER_NAME    = EARTH
REF_FRAME      = TEME
TIME_SYSTEM    = UTC
MEAN_ELEMENT_THEORY = SGP/SGP4

EPOCH          = 2026-02-06T08:28:40.730880
MEAN_MOTION    = 15.50649243
ECCENTRICITY   = .00018077
INCLINATION    = 42.9994
RA_OF_ASC_NODE = 44.7066
ARG_OF_PERICENTER = 246.2430
MEAN_ANOMALY   = 113.8241

EPHEMERIS_TYPE = 0
CLASSIFICATION_TYPE = U
NORAD_CAT_ID   = 67358
ELEMENT_SET_NO = 999
REV_AT_EPOCH   = 402
BSTAR          = .19150101E-2
MEAN_MOTION_DOT = .113938E-2
MEAN_MOTION_DDOT = 0

CCSDS_OMM_VERS = 2.0
CREATION_DATE  = 
ORIGINATOR     = 

OBJECT_NAME    = STARLINK-36499
OBJECT_ID      = 2026-003AB
CENTER_NAME    = EARTH
REF_FRAME      = TEME
TIME_SYSTEM    = UTC
MEAN_ELEMENT_THEORY = SGP/SGP4

EPOCH          = 2026-02-06T14:00:01.999872
MEAN_MOTION    = 15.42050772
ECCENTRICITY   = .0001135
INCLINATION    = 42.9995
RA_OF_ASC_NODE = 43.4292
ARG_OF_PERICENTER = 282.1315
MEAN_ANOMALY   = 256.6495

EPHEMERIS_TYPE = 0
CLASSIFICATION_TYPE = U
NORAD_CAT_ID   = 67359
ELEMENT_SET_NO = 999
REV_AT_EPOCH   = 567
BSTAR          = -.53502595E-1
MEAN_MOTION_DOT = -.2073376E-1
MEAN_MOTION_DDOT = 0

CCSDS_OMM_VERS = 2.0
CREATION_DATE  = 
ORIGINATOR     = 

OBJECT_NAME    = STARLINK-36469
OBJECT_ID      = 2026-003AC
CENTER_NAME    = EARTH
REF_FRAME      = TEME
TIME_SYSTEM    = UTC
MEAN_ELEMENT_THEORY = SGP/SGP4

EPOCH          = 2026-02-06T14:00:01.999872
MEAN_MOTION    = 15.43669291
ECCENTRICITY   = .00008734
INCLINATION    = 43.0002
RA_OF_ASC_NODE = 43.4000
ARG_OF_PERICENTER = 280.4124
MEAN_ANOMALY   = 270.4581

EPHEMERIS_TYPE = 0
CLASSIFICATION_TYPE = U
NORAD_CAT_ID   = 67360
ELEMENT_SET_NO = 999
REV_AT_EPOCH   = 567
BSTAR          = -.48479031E-1
MEAN_MOTION_DOT = -.1994482E-1
MEAN_MOTION_DDOT = 0

CCSDS_OMM_VERS = 2.0
CREATION_DATE  = 
ORIGINATOR     = 

OBJECT_NAME    = STARLINK-35306
OBJECT_ID      = 2026-003AD
CENTER_NAME    = EARTH
REF_FRAME      = TEME
TIME_SYSTEM    = UTC
MEAN_ELEMENT_THEORY = SGP/SGP4

EPOCH          = 2026-02-06T09:59:57.369408
MEAN_MOTION    = 15.50587140
ECCENTRICITY   = .00022241
INCLINATION    = 42.9988
RA_OF_ASC_NODE = 44.3213
ARG_OF_PERICENTER = 255.7890
MEAN_ANOMALY   = 104.2723

EPHEMERIS_TYPE = 0
CLASSIFICATION_TYPE = U
NORAD_CAT_ID   = 67361
ELEMENT_SET_NO = 999
REV_AT_EPOCH   = 403
BSTAR          = .18295461E-2
MEAN_MOTION_DOT = .108524E-2
MEAN_MOTION_DDOT = 0

CCSDS_OMM_VERS = 2.0
CREATION_DATE  = 
ORIGINATOR     = 

OBJECT_NAME    = STARLINK-36428
OBJECT_ID      = 2026-003AE
CENTER_NAME    = EARTH
REF_FRAME      = TEME
TIME_SYSTEM    = UTC
MEAN_ELEMENT_THEORY = SGP/SGP4

EPOCH          = 2026-02-05T09:15:19.521504
MEAN_MOTION    = 15.50641479
ECCENTRICITY   = .00022336
INCLINATION    = 42.9974
RA_OF_ASC_NODE = 50.3443
ARG_OF_PERICENTER = 269.5748
MEAN_ANOMALY   = 90.4856

EPHEMERIS_TYPE = 0
CLASSIFICATION_TYPE = U
NORAD_CAT_ID   = 67362
ELEMENT_SET_NO = 999
REV_AT_EPOCH   = 387
BSTAR          = .18165689E-2
MEAN_MOTION_DOT = .107953E-2
MEAN_MOTION_DDOT = 0

CCSDS_OMM_VERS = 2.0
CREATION_DATE  = 
ORIGINATOR     = 

OBJECT_NAME    = TWILIGHT A
OBJECT_ID      = 2026-004A
CENTER_NAME    = EARTH
REF_FRAME      = TEME
TIME_SYSTEM    = UTC
MEAN_ELEMENT_THEORY = SGP/SGP4

EPOCH          = 2026-02-06T14:08:10.190112
MEAN_MOTION    = 14.87052577
ECCENTRICITY   = .00081868
INCLINATION    = 97.8003
RA_OF_ASC_NODE = 38.2863
ARG_OF_PERICENTER = 200.1339
MEAN_ANOMALY   = 159.9555

EPHEMERIS_TYPE = 0
CLASSIFICATION_TYPE = U
NORAD_CAT_ID   = 67363
ELEMENT_SET_NO = 999
REV_AT_EPOCH   = 386
BSTAR          = .73636649E-3
MEAN_MOTION_DOT = .6556E-4
MEAN_MOTION_DDOT = 0

CCSDS_OMM_VERS = 2.0
CREATION_DATE  = 
ORIGINATOR     = 

OBJECT_NAME    = TWILIGHT B
OBJECT_ID      = 2026-004B
CENTER_NAME    = EARTH
REF_FRAME      = TEME
TIME_SYSTEM    = UTC
MEAN_ELEMENT_THEORY = SGP/SGP4

EPOCH          = 2026-02-06T14:05:39.909408
MEAN_MOTION    = 14.87186043
ECCENTRICITY   = .00081351
INCLINATION    = 97.8006
RA_OF_ASC_NODE = 38.2890
ARG_OF_PERICENTER = 195.5756
MEAN_ANOMALY   = 164.5211

EPHEMERIS_TYPE = 0
CLASSIFICATION_TYPE = U
NORAD_CAT_ID   = 67364
ELEMENT_SET_NO = 999
REV_AT_EPOCH   = 387
BSTAR          = .81456074E-3
MEAN_MOTION_DOT = .7283E-4
MEAN_MOTION_DDOT = 0

CCSDS_OMM_VERS = 2.0
CREATION_DATE  = 
ORIGINATOR     = 

OBJECT_NAME    = TWILIGHT C
OBJECT_ID      = 2026-004C
CENTER_NAME    = EARTH
REF_FRAME      = TEME
TIME_SYSTEM    = UTC
MEAN_ELEMENT_THEORY = SGP/SGP4

EPOCH          = 2026-02-06T14:05:08.237760
MEAN_MOTION    = 14.87206802
ECCENTRICITY   = .0007718
INCLINATION    = 97.7982
RA_OF_ASC_NODE = 38.2851
ARG_OF_PERICENTER = 200.8419
MEAN_ANOMALY   = 159.2484

EPHEMERIS_TYPE = 0
CLASSIFICATION_TYPE = U
NORAD_CAT_ID   = 67365
ELEMENT_SET_NO = 999
REV_AT_EPOCH   = 387
BSTAR          = .79161278E-3
MEAN_MOTION_DOT = .7079E-4
MEAN_MOTION_DDOT = 0

CCSDS_OMM_VERS = 2.0
CREATION_DATE  = 
ORIGINATOR     = 

OBJECT_NAME    = TWILIGHT D
OBJECT_ID      = 2026-004D
CENTER_NAME    = EARTH
REF_FRAME      = TEME
TIME_SYSTEM    = UTC
MEAN_ELEMENT_THEORY = SGP/SGP4

EPOCH          = 2026-02-06T14:04:51.794112
MEAN_MOTION    = 14.87148584
ECCENTRICITY   = .00083171
INCLINATION    = 97.8038
RA_OF_ASC_NODE = 38.2956
ARG_OF_PERICENTER = 189.6373
MEAN_ANOMALY   = 170.4685

EPHEMERIS_TYPE = 0
CLASSIFICATION_TYPE = U
NORAD_CAT_ID   = 67366
ELEMENT_SET_NO = 999
REV_AT_EPOCH   = 387
BSTAR          = .47170958E-3
MEAN_MOTION_DOT = .4189E-4
MEAN_MOTION_DDOT = 0

CCSDS_OMM_VERS = 2.0
CREATION_DATE  = 
ORIGINATOR     = 

OBJECT_NAME    = TWILIGHT E
OBJECT_ID      = 2026-004E
CENTER_NAME    = EARTH
REF_FRAME      = TEME
TIME_SYSTEM    = UTC
MEAN_ELEMENT_THEORY = SGP/SGP4

EPOCH          = 2026-02-06T14:02:14.992800
MEAN_MOTION    = 14.87325958
ECCENTRICITY   = .00071632
INCLINATION    = 97.7969
RA_OF_ASC_NODE = 38.2855
ARG_OF_PERICENTER = 202.3097
MEAN_ANOMALY   = 157.7809

EPHEMERIS_TYPE = 0
CLASSIFICATION_TYPE = U
NORAD_CAT_ID   = 67367
ELEMENT_SET_NO = 999
REV_AT_EPOCH   = 387
BSTAR          = .73442779E-3
MEAN_MOTION_DOT = .6582E-4
MEAN_MOTION_DDOT = 0

CCSDS_OMM_VERS = 2.0
CREATION_DATE  = 
ORIGINATOR     = 

OBJECT_NAME    = TWILIGHT F
OBJECT_ID      = 2026-004F
CENTER_NAME    = EARTH
REF_FRAME      = TEME
TIME_SYSTEM    = UTC
MEAN_ELEMENT_THEORY = SGP/SGP4

EPOCH          = 2026-02-06T14:01:21.029952
MEAN_MOTION    = 14.87348527
ECCENTRICITY   = .00076659
INCLINATION    = 97.8030
RA_OF_ASC_NODE = 38.2979
ARG_OF_PERICENTER = 190.7013
MEAN_ANOMALY   = 169.4042

EPHEMERIS_TYPE = 0
CLASSIFICATION_TYPE = U
NORAD_CAT_ID   = 67368
ELEMENT_SET_NO = 999
REV_AT_EPOCH   = 387
BSTAR          = .67868925E-3
MEAN_MOTION_DOT = .6082E-4
MEAN_MOTION_DDOT = 0

CCSDS_OMM_VERS = 2.0
CREATION_DATE  = 
ORIGINATOR     = 

OBJECT_NAME    = TWILIGHT G
OBJECT_ID      = 2026-004G
CENTER_NAME    = EARTH
REF_FRAME      = TEME
TIME_SYSTEM    = UTC
MEAN_ELEMENT_THEORY = SGP/SGP4

EPOCH          = 2026-02-06T14:00:36.184032
MEAN_MOTION    = 14.87285606
ECCENTRICITY   = .00065425
INCLINATION    = 97.7962
RA_OF_ASC_NODE = 38.2858
ARG_OF_PERICENTER = 204.4292
MEAN_ANOMALY   = 155.6615

EPHEMERIS_TYPE = 0
CLASSIFICATION_TYPE = U
NORAD_CAT_ID   = 67369
ELEMENT_SET_NO = 999
REV_AT_EPOCH   = 387
BSTAR          = .35556798E-3
MEAN_MOTION_DOT = .3154E-4
MEAN_MOTION_DDOT = 0

